HIMAWARI-8              
1 40267U 14060A   24267.71160476 -.00000288  00000+0  00000+0 0  9990
2 40267   0.0213 174.8256 0000772   7.2704 217.7877  1.00272892 36421
